OBJECT_NAME,OBJECT_ID,EPOCH,MEAN_MOTION,ECCENTRICITY,INCLINATION,RA_OF_ASC_NODE,ARG_OF_PERICENTER,MEAN_ANOMALY,EPHEMERIS_TYPE,CLASSIFICATION_TYPE,NORAD_CAT_ID,ELEMENT_SET_NO,REV_AT_EPOCH,BSTAR,MEAN_MOTION_DOT,MEAN_MOTION_DDOT
IRIDIUM 138,2017-083B,2026-06-11T12:36:59.208192,14.34218167,.0002383,86.3977,324.0776,87.7808,272.3661,0,U,43071,999,44332,.33064E-4,.112E-5,0
IRIDIUM 116,2017-083C,2026-06-11T16:52:43.154400,14.34217691,.0001882,86.3959,324.2947,95.6991,264.4419,0,U,43072,999,44338,.15909E-4,.64E-6,0
IRIDIUM 130,2017-083D,2026-06-11T11:05:39.085152,14.34217257,.0001838,86.3965,324.6703,89.0856,271.0550,0,U,43073,999,44329,-.40443E-4,-.93E-6,0
IRIDIUM 151,2017-083E,2026-06-11T12:09:35.176032,14.34217635,.0002127,86.3962,324.4347,92.5204,267.6235,0,U,43074,999,44332,.56628E-5,.36E-6,0
IRIDIUM 134,2017-083F,2026-06-11T16:25:19.156800,14.34217573,.0001971,86.3959,324.3682,89.5855,270.5567,0,U,43075,999,44331,-.4798E-5,.6E-7,0
IRIDIUM 137,2017-083G,2026-06-11T16:43:35.173632,14.34217579,.0002089,86.3964,324.4556,103.4738,256.6691,0,U,43076,999,44338,.79722E-5,.42E-6,0
IRIDIUM 141,2017-083H,2026-06-11T16:34:27.168672,14.34217942,.0002215,86.3959,324.2892,90.7109,269.4341,0,U,43077,999,44338,.1667E-4,.66E-6,0
IRIDIUM 153,2017-083J,2026-06-11T15:25:35.436000,14.34217586,.000218,86.3955,292.7895,90.4152,269.7293,0,U,43078,999,44448,-.8217E-6,.17E-6,0
IRIDIUM 131,2017-083K,2026-06-11T12:55:15.191328,14.34217340,.0002082,86.3963,324.5387,91.7581,268.3853,0,U,43079,999,44329,-.70075E-5,0,0
IRIDIUM 144,2018-030A,2026-06-11T15:34:43.396032,14.34217691,.0002061,86.3955,292.7158,95.7130,264.4301,0,U,43249,999,42934,.7072E-5,.4E-6,0
IRIDIUM 149,2018-030B,2026-06-11T15:43:51.399264,14.34217872,.0002239,86.3954,292.6803,93.3371,266.8081,0,U,43250,999,42936,.30763E-5,.28E-6,0
IRIDIUM 157,2018-030C,2026-06-11T14:30:47.426976,14.34217526,.0002079,86.3953,292.7547,94.1178,266.0255,0,U,43251,999,42933,-.36687E-5,.1E-6,0
IRIDIUM 140,2018-030D,2026-06-11T09:56:47.391360,14.34217602,.0002009,86.3954,292.8469,92.9536,267.1889,0,U,43252,999,42936,-.1046E-5,.17E-6,0
IRIDIUM 145,2018-030E,2026-06-11T14:39:55.322208,14.34217769,.0001895,86.3955,292.7368,98.7640,261.3771,0,U,43253,999,42932,.80344E-4,.245E-5,0
IRIDIUM 146,2018-030F,2026-06-11T14:12:31.405824,14.34217654,.0002089,86.3956,292.7570,95.9032,264.2402,0,U,43254,999,42933,-.74683E-6,.18E-6,0
IRIDIUM 148,2018-030G,2026-06-11T15:07:19.452000,14.34217203,.0002091,86.3955,292.7843,97.2150,262.9283,0,U,43255,999,42937,-.86347E-5,-.4E-7,0
IRIDIUM 142,2018-030H,2026-06-11T14:21:39.352032,14.34217011,.0002019,86.3953,292.6865,96.9179,263.2246,0,U,43256,999,42933,.45167E-4,.146E-5,0
IRIDIUM 150,2018-030J,2026-06-11T15:16:27.399072,14.34217534,.0002017,86.3953,292.7869,93.1251,267.0175,0,U,43257,999,42936,-.47441E-5,.6E-7,0
IRIDIUM 143,2018-030K,2026-06-11T14:49:03.395424,14.34218134,.0002062,86.3958,292.8871,95.1689,264.9742,0,U,43258,999,42929,.66546E-4,.206E-5,0
IRIDIUM 161,2018-047C,2026-06-11T13:16:36.465312,14.43279844,.0002556,86.4482,90.8267,86.7276,273.4217,0,U,43478,999,42432,.75187E-4,.273E-5,0
IRIDIUM 152,2018-047D,2026-06-11T07:27:54.308736,14.34217379,.0002247,86.3957,90.7889,83.5993,276.5459,0,U,43479,999,42164,-.98023E-5,-.8E-7,0
IRIDIUM 147,2018-047E,2026-06-11T07:37:02.248032,14.34217760,.000216,86.3959,90.7913,84.9428,275.2015,0,U,43480,999,42164,.10551E-4,.49E-6,0
IRIDIUM 110,2018-047F,2026-06-11T12:47:34.332000,14.34217715,.0002596,86.3961,90.7930,84.9448,275.2044,0,U,43481,999,42166,-.62415E-6,.18E-6,0
IRIDIUM 162,2018-047G,2026-06-11T13:07:32.593728,14.43278492,.0002327,86.4480,90.7204,83.0053,277.1413,0,U,43482,999,42431,.746E-4,.271E-5,0
IRIDIUM 160,2018-061A,2026-06-11T16:30:58.525632,14.34217336,.0002178,86.3962,59.0965,85.5795,274.5650,0,U,43569,999,41258,-.10933E-4,-.11E-6,0
IRIDIUM 166,2018-061B,2026-06-11T17:07:30.477216,14.34217921,.0002123,86.3967,59.0364,86.1001,274.0437,0,U,43570,999,41261,.40948E-4,.134E-5,0
IRIDIUM 158,2018-061C,2026-06-11T16:21:50.472288,14.34217724,.0002246,86.3965,59.0599,82.2926,277.8525,0,U,43571,999,41257,.16908E-4,.67E-6,0
IRIDIUM 165,2018-061D,2026-06-11T16:58:22.265760,14.34217027,.0002079,86.3968,59.0955,85.6310,274.5123,0,U,43572,999,41260,.42612E-4,.139E-5,0
IRIDIUM 155,2018-061E,2026-06-11T16:03:34.453728,14.34217668,.0002148,86.3962,58.9806,82.4620,277.6820,0,U,43573,999,41256,-.3253E-5,.11E-6,0
IRIDIUM 154,2018-061F,2026-06-11T15:36:10.470816,14.34217616,.0002088,86.3967,59.1219,87.4036,272.7398,0,U,43574,999,41261,-.12586E-6,.19E-6,0
IRIDIUM 163,2018-061G,2026-06-11T16:49:13.791648,14.34216499,.000229,86.3964,59.0163,83.4500,276.6957,0,U,43575,999,41259,.56219E-4,.177E-5,0
