IRIDIUM 138             
1 43071U 17083B   26162.52568528  .00000112  00000+0  33064-4 0  9995
2 43071  86.3977 324.0776 0002383  87.7808 272.3661 14.34218167443320
IRIDIUM 116             
1 43072U 17083C   26162.70327725  .00000064  00000+0  15909-4 0  9992
2 43072  86.3959 324.2947 0001882  95.6991 264.4419 14.34217691443387
IRIDIUM 130             
1 43073U 17083D   26162.46225793 -.00000093  00000+0 -40443-4 0  9993
2 43073  86.3965 324.6703 0001838  89.0856 271.0550 14.34217257443295
IRIDIUM 151             
1 43074U 17083E   26162.50665713  .00000036  00000+0  56628-5 0  9997
2 43074  86.3962 324.4347 0002127  92.5204 267.6235 14.34217635443328
IRIDIUM 134             
1 43075U 17083F   26162.68424950  .00000006  00000+0 -47980-5 0  9992
2 43075  86.3959 324.3682 0001971  89.5855 270.5567 14.34217573443311
IRIDIUM 137             
1 43076U 17083G   26162.69693488  .00000042  00000+0  79722-5 0  9996
2 43076  86.3964 324.4556 0002089 103.4738 256.6691 14.34217579443382
IRIDIUM 141             
1 43077U 17083H   26162.69059223  .00000066  00000+0  16670-4 0  9998
2 43077  86.3959 324.2892 0002215  90.7109 269.4341 14.34217942443387
IRIDIUM 153             
1 43078U 17083J   26162.64277125  .00000017  00000+0 -82170-6 0  9994
2 43078  86.3955 292.7895 0002180  90.4152 269.7293 14.34217586444487
IRIDIUM 131             
1 43079U 17083K   26162.53837027  .00000000  00000+0 -70075-5 0  9998
2 43079  86.3963 324.5387 0002082  91.7581 268.3853 14.34217340443291
IRIDIUM 144             
1 43249U 18030A   26162.64911338  .00000040  00000+0  70720-5 0  9990
2 43249  86.3955 292.7158 0002061  95.7130 264.4301 14.34217691429348
IRIDIUM 149             
1 43250U 18030B   26162.65545601  .00000028  00000+0  30763-5 0  9998
2 43250  86.3954 292.6803 0002239  93.3371 266.8081 14.34217872429367
IRIDIUM 157             
1 43251U 18030C   26162.60471559  .00000010  00000+0 -36687-5 0  9997
2 43251  86.3953 292.7547 0002079  94.1178 266.0255 14.34217526429337
IRIDIUM 140             
1 43252U 18030D   26162.41443740  .00000017  00000+0 -10460-5 0  9996
2 43252  86.3954 292.8469 0002009  92.9536 267.1889 14.34217602429363
IRIDIUM 145             
1 43253U 18030E   26162.61105697  .00000245  00000+0  80344-4 0  9994
2 43253  86.3955 292.7368 0001895  98.7640 261.3771 14.34217769429320
IRIDIUM 146             
1 43254U 18030F   26162.59203016  .00000018  00000+0 -74683-6 0  9996
2 43254  86.3956 292.7570 0002089  95.9032 264.2402 14.34217654429334
IRIDIUM 148             
1 43255U 18030G   26162.63008625 -.00000004  00000+0 -86347-5 0  9996
2 43255  86.3955 292.7843 0002091  97.2150 262.9283 14.34217203429372
IRIDIUM 142             
1 43256U 18030H   26162.59837213  .00000146  00000+0  45167-4 0  9994
2 43256  86.3953 292.6865 0002019  96.9179 263.2246 14.34217011429337
IRIDIUM 150             
1 43257U 18030J   26162.63642823  .00000006  00000+0 -47441-5 0  9995
2 43257  86.3953 292.7869 0002017  93.1251 267.0175 14.34217534429367
IRIDIUM 143             
1 43258U 18030K   26162.61740041  .00000206  00000+0  66546-4 0  9992
2 43258  86.3958 292.8871 0002062  95.1689 264.9742 14.34218134429299
IRIDIUM 161             
1 43478U 18047C   26162.55319983  .00000273  00000+0  75187-4 0  9999
2 43478  86.4482  90.8267 0002556  86.7276 273.4217 14.43279844424323
IRIDIUM 152             
1 43479U 18047D   26162.31104524 -.00000008  00000+0 -98023-5 0  9990
2 43479  86.3957  90.7889 0002247  83.5993 276.5459 14.34217379421646
IRIDIUM 147             
1 43480U 18047E   26162.31738713  .00000049  00000+0  10551-4 0  9997
2 43480  86.3959  90.7913 0002160  84.9428 275.2015 14.34217760421648
IRIDIUM 110             
1 43481U 18047F   26162.53303625  .00000018  00000+0 -62415-6 0  9997
2 43481  86.3961  90.7930 0002596  84.9448 275.2044 14.34217715421660
IRIDIUM 162             
1 43482U 18047G   26162.54690502  .00000271  00000+0  74600-4 0  9999
2 43482  86.4480  90.7204 0002327  83.0053 277.1413 14.43278492424311
IRIDIUM 160             
1 43569U 18061A   26162.68817738 -.00000011  00000+0 -10933-4 0  9991
2 43569  86.3962  59.0965 0002178  85.5795 274.5650 14.34217336412587
IRIDIUM 166             
1 43570U 18061B   26162.71354719  .00000134  00000+0  40948-4 0  9995
2 43570  86.3967  59.0364 0002123  86.1001 274.0437 14.34217921412616
IRIDIUM 158             
1 43571U 18061C   26162.68183417  .00000067  00000+0  16908-4 0  9991
2 43571  86.3965  59.0599 0002246  82.2926 277.8525 14.34217724412579
IRIDIUM 165             
1 43572U 18061D   26162.70720215  .00000139  00000+0  42612-4 0  9999
2 43572  86.3968  59.0955 0002079  85.6310 274.5123 14.34217027412605
IRIDIUM 155             
1 43573U 18061E   26162.66914877  .00000011  00000+0 -32530-5 0  9993
2 43573  86.3962  58.9806 0002148  82.4620 277.6820 14.34217668412563
IRIDIUM 154             
1 43574U 18061F   26162.65012119  .00000019  00000+0 -12586-6 0  9999
2 43574  86.3967  59.1219 0002088  87.4036 272.7398 14.34217616412614
IRIDIUM 163             
1 43575U 18061G   26162.70085407  .00000177  00000+0  56219-4 0  9999
2 43575  86.3964  59.0163 0002290  83.4500 276.6957 14.34216499412595
